GLOBALSTAR M063 [+]     
1 26081U 00008A   23249.35887983 -.00000070  00000+0  18152-3 0  9993
2 26081  51.9985  22.9437 0005077 143.0255 241.3665 11.86144057 80464
GLOBALSTAR M062 [-]     
1 26082U 00008B   23249.21065014 -.00000033  00000+0  46562-3 0  9997
2 26082  51.9827 207.0830 0006586 161.6256 211.4470 12.43410717415766
GLOBALSTAR M064 [-]     
1 26084U 00008D   23249.13150744 -.00000072  00000+0  15694-3 0  9990
2 26084  52.0019 130.0400 0000781 265.0848  94.9896 11.88509402 89804
GLOBALSTAR M069 [+]     
1 31573U 07020C   23249.52929130 -.00000087  00000+0  92512-4 0  9997
2 31573  51.9979 359.7182 0001127 118.6654  12.2040 12.62279889752500
GLOBALSTAR M072 [+]     
1 31574U 07020D   23249.29642823 -.00000095  00000+0  47801-4 0  9993
2 31574  52.0076  96.1077 0001194  54.2041 117.7072 12.62265357750740
GLOBALSTAR M071 [P]     
1 31576U 07020F   23249.37638118 -.00000079  00000+0  13988-3 0  9996
2 31576  52.0096   5.1262 0001594 119.0691 276.3703 12.62267142413670
